sat38442
1 38442U 65027EX  20046.43683574 -.00000581  00000-0 -21480-2 0  9996
2 38442  90.3018 310.3661 0032867 166.6871 193.5122 12.93214859733735
